{"type": "FeatureCollection", "features": [ {"type": "Feature", "properties": {"norad_id": 37550, "name": "IRIDIUM 33 DEB", "group": "iridium-33-debris", "lat": -35.088102652966306, "lon": -156.10612847757267, "alt_km": 678.0483235815991, "timestamp": "2025-12-18T10:51:26.196538+00:00", "meta": {"OBJECT_NAME": "IRIDIUM 33 DEB", "OBJECT_ID": "1997-051XK", "EPOCH": "2025-12-16T08:46:40.262592", "MEAN_MOTION": 14.67259754, "ECCENTRICITY": 0.0005579, "INCLINATION": 86.3783, "RA_OF_ASC_NODE": 22.2681, "ARG_OF_PERICENTER": 103.1019, "MEAN_ANOMALY": 257.0818, "EPHEMERIS_TYPE": 0, "CLASSIFICATION_TYPE": "U", "NORAD_CAT_ID": 37550, "ELEMENT_SET_NO": 999, "REV_AT_EPOCH": 86386, "BSTAR": 0.00084076341, "MEAN_MOTION_DOT": 4.76e-05, "MEAN_MOTION_DDOT": 0}, "tle": {"line1": "1 37550U 97051XK  25350.36574378  .00004760  00000+0  84076-3 0  9994", "line2": "2 37550  86.3783  22.2681 0005579 103.1019 257.0818 14.67259754863861"}}, "geometry": {"type": "Point", "coordinates": [-156.10612847757267, -35.088102652966306]}}, {"type": "Feature", "properties": {"norad_id": 37562, "name": "IRIDIUM 33 DEB", "group": "iridium-33-debris", "lat": -23.310089975237798, "lon": -137.3240278345331, "alt_km": 717.4345023391506, "timestamp": "2025-12-18T10:51:26.196548+00:00", "meta": {"OBJECT_NAME": "IRIDIUM 33 DEB", "OBJECT_ID": "1997-051XX", "EPOCH": "2025-12-17T21:32:59.557056", "MEAN_MOTION": 14.56520214, "ECCENTRICITY": 0.00266504, "INCLINATION": 86.3744, "RA_OF_ASC_NODE": 41.3522, "ARG_OF_PERICENTER": 91.7117, "MEAN_ANOMALY": 85.7489, "EPHEMERIS_TYPE": 0, "CLASSIFICATION_TYPE": "U", "NORAD_CAT_ID": 37562, "ELEMENT_SET_NO": 999, "REV_AT_EPOCH": 86403, "BSTAR": 0.00077741138, "MEAN_MOTION_DOT": 3.496e-05, "MEAN_MOTION_DDOT": 0}, "tle": {"line1": "1 37562U 97051XX  25351.89791154  .00003496  00000+0  77741-3 0  9995", "line2": "2 37562  86.3744  41.3522 0026650  91.7117  85.7489 14.56520214864031"}}, "geometry": {"type": "Point", "coordinates": [-137.3240278345331, -23.310089975237798]}}, {"type": "Feature", "properties": {"norad_id": 37565, "name": "IRIDIUM 33 DEB", "group": "iridium-33-debris", "lat": -61.41081029753881, "lon": -166.18226971088356, "alt_km": 738.5734944593269, "timestamp": "2025-12-18T10:51:26.196558+00:00", "meta": {"OBJECT_NAME": "IRIDIUM 33 DEB", "OBJECT_ID": "1997-051YA", "EPOCH": "2025-12-16T08:06:50.433408", "MEAN_MOTION": 14.51532577, "ECCENTRICITY": 0.00151174, "INCLINATION": 86.3492, "RA_OF_ASC_NODE": 8.0105, "ARG_OF_PERICENTER": 73.8183, "MEAN_ANOMALY": 286.4685, "EPHEMERIS_TYPE": 0, "CLASSIFICATION_TYPE": "U", "NORAD_CAT_ID": 37565, "ELEMENT_SET_NO": 999, "REV_AT_EPOCH": 65889, "BSTAR": 0.00040818811, "MEAN_MOTION_DOT": 1.655e-05, "MEAN_MOTION_DDOT": 0}, "tle": {"line1": "1 37565U 97051YA  25350.33808372  .00001655  00000+0  40819-3 0  9998", "line2": "2 37565  86.3492   8.0105 0015117  73.8183 286.4685 14.51532577658894"}}, "geometry": {"type": "Point", "coordinates": [-166.18226971088356, -61.41081029753881]}}, {"type": "Feature", "properties": {"norad_id": 38017, "name": "IRIDIUM 33 DEB", "group": "iridium-33-debris", "lat": -79.54144128111409, "lon": 143.46431487967956, "alt_km": 798.6510732808329, "timestamp": "2025-12-18T10:51:26.196569+00:00", "meta": {"OBJECT_NAME": "IRIDIUM 33 DEB", "OBJECT_ID": "1997-051YD", "EPOCH": "2025-12-15T05:20:28.842720", "MEAN_MOTION": 14.49104048, "ECCENTRICITY": 0.00921394, "INCLINATION": 86.3417, "RA_OF_ASC_NODE": 165.1477, "ARG_OF_PERICENTER": 94.6566, "MEAN_ANOMALY": 266.5169, "EPHEMERIS_TYPE": 0, "CLASSIFICATION_TYPE": "U", "NORAD_CAT_ID": 38017, "ELEMENT_SET_NO": 999, "REV_AT_EPOCH": 61438, "BSTAR": 0.0029139765, "MEAN_MOTION_DOT": 0.00011718, "MEAN_MOTION_DDOT": 0}, "tle": {"line1": "1 38017U 97051YD  25349.22255605  .00011718  00000+0  29140-2 0  9996", "line2": "2 38017  86.3417 165.1477 0092139  94.6566 266.5169 14.49104048614383"}}, "geometry": {"type": "Point", "coordinates": [143.46431487967956, -79.54144128111409]}}, {"type": "Feature", "properties": {"norad_id": 38022, "name": "IRIDIUM 33 DEB", "group": "iridium-33-debris", "lat": -79.90021758287523, "lon": -144.56609198962917, "alt_km": 783.4595772592693, "timestamp": "2025-12-18T10:51:26.196580+00:00", "meta": {"OBJECT_NAME": "IRIDIUM 33 DEB", "OBJECT_ID": "1997-051YJ", "EPOCH": "2025-12-16T19:19:39.728352", "MEAN_MOTION": 14.41275031, "ECCENTRICITY": 0.00461893, "INCLINATION": 86.2686, "RA_OF_ASC_NODE": 14.6628, "ARG_OF_PERICENTER": 37.5381, "MEAN_ANOMALY": 322.9028, "EPHEMERIS_TYPE": 0, "CLASSIFICATION_TYPE": "U", "NORAD_CAT_ID": 38022, "ELEMENT_SET_NO": 999, "REV_AT_EPOCH": 69252, "BSTAR": 0.00076326479, "MEAN_MOTION_DOT": 2.517e-05, "MEAN_MOTION_DDOT": 0}, "tle": {"line1": "1 38022U 97051YJ  25350.80532093  .00002517  00000+0  76326-3 0  9993", "line2": "2 38022  86.2686  14.6628 0046189  37.5381 322.9028 14.41275031692523"}}, "geometry": {"type": "Point", "coordinates": [-144.56609198962917, -79.90021758287523]}}, {"type": "Feature", "properties": {"norad_id": 38028, "name": "IRIDIUM 33 DEB", "group": "iridium-33-debris", "lat": 34.08204060626218, "lon": 175.2962401793818, "alt_km": 720.2707616655925, "timestamp": "2025-12-18T10:51:26.196590+00:00", "meta": {"OBJECT_NAME": "IRIDIUM 33 DEB", "OBJECT_ID": "1997-051YQ", "EPOCH": "2025-12-16T18:20:01.722912", "MEAN_MOTION": 14.46184882, "ECCENTRICITY": 0.00302609, "INCLINATION": 86.3259, "RA_OF_ASC_NODE": 358.5216, "ARG_OF_PERICENTER": 108.2751, "MEAN_ANOMALY": 252.1749, "EPHEMERIS_TYPE": 0, "CLASSIFICATION_TYPE": "U", "NORAD_CAT_ID": 38028, "ELEMENT_SET_NO": 999, "REV_AT_EPOCH": 65553, "BSTAR": 0.00020847815, "MEAN_MOTION_DOT": 7.7e-06, "MEAN_MOTION_DDOT": 0}, "tle": {"line1": "1 38028U 97051YQ  25350.76390883  .00000770  00000+0  20848-3 0  9990", "line2": "2 38028  86.3259 358.5216 0030260 108.2751 252.1749 14.46184882655531"}}, "geometry": {"type": "Point", "coordinates": [175.2962401793818, 34.08204060626218]}}, {"type": "Feature", "properties": {"norad_id": 38228, "name": "IRIDIUM 33 DEB", "group": "iridium-33-debris", "lat": 50.34201182788395, "lon": 50.52521096153417, "alt_km": 819.6049120594507, "timestamp": "2025-12-18T10:51:26.196601+00:00", "meta": {"OBJECT_NAME": "IRIDIUM 33 DEB", "OBJECT_ID": "1997-051ZC", "EPOCH": "2025-12-15T22:37:05.354976", "MEAN_MOTION": 14.27271769, "ECCENTRICITY": 0.00646384, "INCLINATION": 86.2946, "RA_OF_ASC_NODE": 47.1084, "ARG_OF_PERICENTER": 179.0762, "MEAN_ANOMALY": 303.5549, "EPHEMERIS_TYPE": 0, "CLASSIFICATION_TYPE": "U", "NORAD_CAT_ID": 38228, "ELEMENT_SET_NO": 999, "REV_AT_EPOCH": 84827, "BSTAR": 0.00027707855, "MEAN_MOTION_DOT": 7.12e-06, "MEAN_MOTION_DDOT": 0}, "tle": {"line1": "1 38228U 97051ZC  25349.94242309  .00000712  00000+0  27708-3 0  9997", "line2": "2 38228  86.2946  47.1084 0064638 179.0762 303.5549 14.27271769848277"}}, "geometry": {"type": "Point", "coordinates": [50.52521096153417, 50.34201182788395]}}, {"type": "Feature", "properties": {"norad_id": 38241, "name": "IRIDIUM 33 DEB", "group": "iridium-33-debris", "lat": -0.05577725297705201, "lon": 168.08238407246594, "alt_km": 714.6884443361723, "timestamp": "2025-12-18T10:51:26.196611+00:00", "meta": {"OBJECT_NAME": "IRIDIUM 33 DEB", "OBJECT_ID": "1997-051ZR", "EPOCH": "2025-12-17T17:31:36.105600", "MEAN_MOTION": 14.54898436, "ECCENTRICITY": 0.00054224, "INCLINATION": 86.3222, "RA_OF_ASC_NODE": 348.3973, "ARG_OF_PERICENTER": 62.3904, "MEAN_ANOMALY": 297.7853, "EPHEMERIS_TYPE": 0, "CLASSIFICATION_TYPE": "U", "NORAD_CAT_ID": 38241, "ELEMENT_SET_NO": 999, "REV_AT_EPOCH": 60273, "BSTAR": 0.00059111352, "MEAN_MOTION_DOT": 2.56e-05, "MEAN_MOTION_DDOT": 0}, "tle": {"line1": "1 38241U 97051ZR  25351.73027900  .00002560  00000+0  59111-3 0  9996", "line2": "2 38241  86.3222 348.3973 0005422  62.3904 297.7853 14.54898436602738"}}, "geometry": {"type": "Point", "coordinates": [168.08238407246594, -0.05577725297705201]}}, {"type": "Feature", "properties": {"norad_id": 38474, "name": "IRIDIUM 33 DEB", "group": "iridium-33-debris", "lat": -47.456760909229196, "lon": -168.4285953825788, "alt_km": 748.8272871101681, "timestamp": "2025-12-18T10:51:26.196621+00:00", "meta": {"OBJECT_NAME": "IRIDIUM 33 DEB", "OBJECT_ID": "1997-051AAB", "EPOCH": "2025-12-13T08:58:04.646496", "MEAN_MOTION": 14.5069505, "ECCENTRICITY": 0.00282612, "INCLINATION": 86.3454, "RA_OF_ASC_NODE": 9.789, "ARG_OF_PERICENTER": 86.1077, "MEAN_ANOMALY": 274.3358, "EPHEMERIS_TYPE": 0, "CLASSIFICATION_TYPE": "U", "NORAD_CAT_ID": 38474, "ELEMENT_SET_NO": 999, "REV_AT_EPOCH": 65327, "BSTAR": 0.00084561127, "MEAN_MOTION_DOT": 3.359e-05, "MEAN_MOTION_DDOT": 0}, "tle": {"line1": "1 38474U 97051AAB 25347.37366489  .00003359  00000+0  84561-3 0  9991", "line2": "2 38474  86.3454   9.7890 0028261  86.1077 274.3358 14.50695050653279"}}, "geometry": {"type": "Point", "coordinates": [-168.4285953825788, -47.456760909229196]}}, {"type": "Feature", "properties": {"norad_id": 39777, "name": "IRIDIUM 33 DEB", "group": "iridium-33-debris", "lat": 32.16611331554816, "lon": 174.8173625170971, "alt_km": 732.5256932054026, "timestamp": "2025-12-18T10:51:26.196632+00:00", "meta": {"OBJECT_NAME": "IRIDIUM 33 DEB", "OBJECT_ID": "1997-051AAJ", "EPOCH": "2025-12-17T11:37:29.440128", "MEAN_MOTION": 14.56536598, "ECCENTRICITY": 0.00601884, "INCLINATION": 85.9622, "RA_OF_ASC_NODE": 172.7412, "ARG_OF_PERICENTER": 170.5587, "MEAN_ANOMALY": 189.6768, "EPHEMERIS_TYPE": 0, "CLASSIFICATION_TYPE": "U", "NORAD_CAT_ID": 39777, "ELEMENT_SET_NO": 999, "REV_AT_EPOCH": 60254, "BSTAR": 0.0020288102, "MEAN_MOTION_DOT": 9.279e-05, "MEAN_MOTION_DDOT": 0}, "tle": {"line1": "1 39777U 97051AAJ 25351.48436852  .00009279  00000+0  20288-2 0  9999", "line2": "2 39777  85.9622 172.7412 0060188 170.5587 189.6768 14.56536598602541"}}, "geometry": {"type": "Point", "coordinates": [174.8173625170971, 32.16611331554816]}}]}